satname,norad_id,inclination_deg,eccentricity,mean_motion_rev_per_day,perigee_km,apogee_km,l1,l2
STARLINK-1554,46055,53.1609,0.0001263,15.31695459,469.888516869637,471.61854661795496,1 46055U 20055AE  26150.86731992  .00002291  00000+0  85570-4 0  9993,2 46055  53.1609  91.7993 0001263  80.6070 279.5074 15.31695459321667
STARLINK-1564,46058,53.1578,0.0001837,15.30209319,473.92828904254384,476.44620037004825,1 46058U 20055AH  26150.84893487  .00003110  00000+0  11706-3 0  9992,2 46058  53.1578  92.7437 0001837  99.9614 260.1594 15.30209319321649
STARLINK-1570,46059,53.1598,0.0001124,15.31682681,470.0218031727045,471.5614423270981,1 46059U 20055AJ  26150.83335647  .00043170  00000+0  13956-2 0  9999,2 46059  53.1598  91.8382 0001124  95.2794 283.1892 15.31682681  5911
STARLINK-1572,46060,53.1614,0.0001242,15.30192438,474.3864591499323,476.0888374125643,1 46060U 20055AK  26150.82994481  .00001082  00000+0  48647-4 0  9990,2 46060  53.1614  92.5820 0001242  75.0676 285.0463 15.30192438321611
STARLINK-1573,46061,53.1603,0.0001298,15.316965,469.8614429751633,471.63941415161844,1 46061U 20055AL  26150.22877223 -.00003057  00000+0 -86782-4 0  9997,2 46061  53.1603  94.6198 0001298  82.7019 277.4130 15.31696500321568
STARLINK-1577,46063,53.16,0.0001369,15.31702201,469.7958238045976,471.67104452947206,1 46063U 20055AN  26150.84399234 -.00000355  00000+0  33702-6 0  9991,2 46063  53.1600  91.7546 0001369  72.8163 287.2988 15.31702201321657
STARLINK-1583,46064,53.1599,0.0001235,15.31691149,469.9205401557356,471.6122192905268,1 46064U 20055AP  26150.83335647  .00037190  00000+0  12046-2 0  9999,2 46064  53.1599  92.2999 0001235 103.1187 120.7841 15.31691149  5903
STARLINK-1536,46070,53.1622,0.00022,15.31717083,469.18233042898464,472.19581390073745,1 46070U 20055AV  26150.20682561  .00010570  00000+0  35172-3 0  9996,2 46070  53.1622  82.6074 0002200  82.4436 277.6816 15.31717083321724
STARLINK-1542,46073,53.1611,0.0001215,15.31728408,469.8231854985579,471.4874420308033,1 46073U 20055AY  26150.23118714  .00013113  00000+0  43320-3 0  9996,2 46073  53.1611  85.4587 0001215 109.3702 250.7431 15.31728408321677
STARLINK-1549,46074,53.0495,0.0004111,15.28644566,477.04392865538375,482.68257646303846,1 46074U 20055AZ  26150.82920818  .00018605  00000+0  66973-3 0  9998,2 46074  53.0495  79.7791 0004111  83.6950 276.4517 15.28644566321798
STARLINK-1551,46075,53.1605,0.0001461,15.3018947,474.2452309507253,476.2477896124301,1 46075U 20055BA  26150.77458671  .00001791  00000+0  72612-4 0  9992,2 46075  53.1605  79.7886 0001461  92.4576 267.6592 15.30189470321803
STARLINK-1552,46076,53.1597,9.96e-05,15.31700278,470.0570184560538,471.42131458842505,1 46076U 20055BB  26150.77104909  .00001721  00000+0  67215-4 0  9991,2 46076  53.1597  79.4978 0000996  79.0875 281.0238 15.31700278321799
STARLINK-1559,46077,53.0242,0.0002293,15.37401967,452.2287212600586,455.3618454051939,1 46077U 20055BC  26150.73579999  .00055314  00000+0  14861-2 0  9997,2 46077  53.0242  49.6340 0002293  82.8470 277.2793 15.37401967322178
STARLINK-1566,46079,53.1617,0.0001097,15.31697878,469.9949983042379,471.4976433048232,1 46079U 20055BE  26150.77569565 -.00002011  00000+0 -53065-4 0  9990,2 46079  53.1617  79.3285 0001097  76.9676 283.1448 15.31697878321813
STARLINK-1568,46080,53.0595,0.0003677,15.53379434,404.3726635399198,409.3623558563522,1 46080U 20055BF  26150.83840696  .00052744  00000+0  82158-3 0  9996,2 46080  53.0595 358.9238 0003677  64.4814 295.6576 15.53379434322938
STARLINK-1578,46082,53.158,0.0001845,15.31707622,469.45366092083077,471.980888148134,1 46082U 20055BH  26150.19282664  .00004092  00000+0  14353-3 0  9997,2 46082  53.1580  82.5584 0001845  99.0834 261.0376 15.31707622321710
STARLINK-1579,46083,53.1601,7.76e-05,15.31699136,470.211097711207,471.2740438205901,1 46083U 20055BJ  26150.83162748 -.00003166  00000+0 -90304-4 0  9993,2 46083  53.1601  79.1241 0000776  51.6332 308.4739 15.31699136321816
STARLINK-1622,46128,53.0146,0.0007602,15.81709014,320.51122976595616,330.7036027764552,1 46128U 20057M   26150.83335647  .00174111  00000+0  83364-3 0  9999,2 46128  53.0146 176.4356 0007602  27.5931  14.1042 15.81709014  5830
STARLINK-1623,46129,53.0416,0.0005825,15.72936098,346.5912379688398,354.4301125104939,1 46129U 20057N   26150.83335647  .00041335  00000+0  30056-3 0  9991,2 46129  53.0416 214.0586 0005825   5.5197 142.5728 15.72936098  5842
STARLINK-1596,46141,53.0349,0.0006995,15.57925252,388.9257171155241,398.3994647432346,1 46141U 20057AA  26150.56136882  .00093874  00000+0  12247-2 0  9991,2 46141  53.0349 196.9957 0006995   3.0533 357.0520 15.57925252319986
STARLINK-1597,46142,53.0432,0.0003742,15.72614264,348.9104479906646,353.9468549242147,1 46142U 20057AB  26150.83335647  .00139024  00000+0  10030-2 0  9998,2 46142  53.0432 253.7919 0003742  12.5682 273.5592 15.72614264  6021
STARLINK-1606,46144,53.0346,0.0008455,15.86887524,305.3595187860592,316.67087515113417,1 46144U 20057AD  26150.83335647  .00225328  00000+0  83680-3 0  9995,2 46144  53.0346 207.6973 0008455 349.1142 316.8908 15.86887524  5882
STARLINK-1608,46146,53.16,0.0002993,15.35070019,458.6656592539521,462.7593945807648,1 46146U 20057AF  26150.58616230  .00049423  00000+0  14333-2 0  9997,2 46146  53.1600 287.8951 0002993 309.4537  50.6201 15.35070019318739
STARLINK-1667,46155,53.0112,0.0008671,15.86204296,307.13404841180454,318.7377069963186,1 46155U 20057AQ  26150.83335647  .00302501  00000+0  11503-2 0  9990,2 46155  53.0112 175.9354 0008671  30.5146 243.9904 15.86204296  5931
STARLINK-1545,46156,53.038,0.0006668,15.8032887,325.03723047171934,333.98254836344677,1 46156U 20057AR  26150.83335647  .00152228  00000+0  77947-3 0  9995,2 46156  53.0380 211.8520 0006668 335.5159  90.5055 15.80328870  6045
STARLINK-1595,46159,53.0416,0.0003935,15.70683917,354.2909596597674,359.5914662133482,1 46159U 20057AU  26150.83335647  .00068793  00000+0  54524-3 0  9997,2 46159  53.0416 256.4219 0003935   0.8344 165.8685 15.70683917  6006
STARLINK-1598,46160,53.0451,9.59e-05,15.70544554,356.69370169613467,357.9855661145175,1 46160U 20057AV  26150.83335647  .00092262  00000+0  73205-3 0  9994,2 46160  53.0451 242.5678 0000959 180.8124 135.8533 15.70544554  5854
STARLINK-1626,46167,53.0411,0.0002927,15.70643678,355.0848539712224,359.0276360968646,1 46167U 20057BC  26150.83335647  .00045782  00000+0  36611-3 0  9996,2 46167  53.0411 252.0755 0002927 352.1622   2.3007 15.70643678  5911
